{
  "type": "FeatureCollection",
  "features": [
    {
      "type": "Feature",
      "properties": {
        "norad_id": 29922,
        "name": "FENGYUN 1C DEB",
        "group": "fengyun-1c-debris",
        "lat": -70.40092481936311,
        "lon": 82.66965048186223,
        "alt_km": 859.938449896933,
        "timestamp": "2025-12-24T09:46:31.276398+00:00",
        "meta_object_name": "FENGYUN 1C DEB",
        "meta_object_id": "1999-025HU",
        "meta_epoch": "2025-12-24T03:14:53.867616",
        "meta_mean_motion": 13.98583364,
        "meta_eccentricity": 0.0092552,
        "meta_inclination": 99.1333,
        "meta_ra_of_asc_node": 55.5396,
        "meta_arg_of_pericenter": 335.5079,
        "meta_mean_anomaly": 24.1702,
        "meta_ephemeris_type": 0,
        "meta_classification_type": "U",
        "meta_norad_cat_id": 29922,
        "meta_element_set_no": 999,
        "meta_rev_at_epoch": 96600,
        "meta_bstar": 8.8221e-05,
        "meta_mean_motion_dot": 8.6e-07,
        "meta_mean_motion_ddot": 0,
        "tle_line1": "1 29922U 99025HU  25358.13534569  .00000086  00000+0  88221-4 0  9996",
        "tle_line2": "2 29922  99.1333  55.5396 0092552 335.5079  24.1702 13.98583364966009"
      },
      "geometry": {
        "type": "Point",
        "coordinates": [
          82.66965048186223,
          -70.40092481936311
        ]
      }
    },
    {
      "type": "Feature",
      "properties": {
        "norad_id": 29923,
        "name": "FENGYUN 1C DEB",
        "group": "fengyun-1c-debris",
        "lat": 50.66138525042191,
        "lon": -4.380869400271299,
        "alt_km": 840.2056110235644,
        "timestamp": "2025-12-24T09:46:31.276408+00:00",
        "meta_object_name": "FENGYUN 1C DEB",
        "meta_object_id": "1999-025HV",
        "meta_epoch": "2025-12-23T23:39:05.489280",
        "meta_mean_motion": 14.13911785,
        "meta_eccentricity": 0.0018014,
        "meta_inclination": 98.6879,
        "meta_ra_of_asc_node": 5.9609,
        "meta_arg_of_pericenter": 137.9659,
        "meta_mean_anomaly": 287.8609,
        "meta_ephemeris_type": 0,
        "meta_classification_type": "U",
        "meta_norad_cat_id": 29923,
        "meta_element_set_no": 999,
        "meta_rev_at_epoch": 97434,
        "meta_bstar": 0.00042917,
        "meta_mean_motion_dot": 7.73e-06,
        "meta_mean_motion_ddot": 0,
        "tle_line1": "1 29923U 99025HV  25357.98548020  .00000773  00000+0  42917-3 0  9990",
        "tle_line2": "2 29923  98.6879   5.9609 0018014 137.9659 287.8609 14.13911785974344"
      },
      "geometry": {
        "type": "Point",
        "coordinates": [
          -4.380869400271299,
          50.66138525042191
        ]
      }
    },
    {
      "type": "Feature",
      "properties": {
        "norad_id": 29924,
        "name": "FENGYUN 1C DEB",
        "group": "fengyun-1c-debris",
        "lat": 4.2577464414048585,
        "lon": -168.3418490302322,
        "alt_km": 852.7793601783887,
        "timestamp": "2025-12-24T09:46:31.276419+00:00",
        "meta_object_name": "FENGYUN 1C DEB",
        "meta_object_id": "1999-025HW",
        "meta_epoch": "2025-12-23T20:08:34.914336",
        "meta_mean_motion": 14.08893331,
        "meta_eccentricity": 0.00261809,
        "meta_inclination": 98.7338,
        "meta_ra_of_asc_node": 10.4521,
        "meta_arg_of_pericenter": 225.21,
        "meta_mean_anomaly": 311.2209,
        "meta_ephemeris_type": 0,
        "meta_classification_type": "U",
        "meta_norad_cat_id": 29924,
        "meta_element_set_no": 999,
        "meta_rev_at_epoch": 97364,
        "meta_bstar": 4.2550036e-05,
        "meta_mean_motion_dot": 3.1e-07,
        "meta_mean_motion_ddot": 0,
        "tle_line1": "1 29924U 99025HW  25357.83929299  .00000031  00000+0  42550-4 0  9997",
        "tle_line2": "2 29924  98.7338  10.4521 0026180 225.2100 311.2209 14.08893331973645"
      },
      "geometry": {
        "type": "Point",
        "coordinates": [
          -168.3418490302322,
          4.2577464414048585
        ]
      }
    },
    {
      "type": "Feature",
      "properties": {
        "norad_id": 29926,
        "name": "FENGYUN 1C DEB",
        "group": "fengyun-1c-debris",
        "lat": -5.470883485743975,
        "lon": -12.378570987591635,
        "alt_km": 777.4416384808737,
        "timestamp": "2025-12-24T09:46:31.276429+00:00",
        "meta_object_name": "FENGYUN 1C DEB",
        "meta_object_id": "1999-025HY",
        "meta_epoch": "2025-12-23T22:12:41.713920",
        "meta_mean_motion": 14.3342129,
        "meta_eccentricity": 0.0247887,
        "meta_inclination": 98.2841,
        "meta_ra_of_asc_node": 346.3602,
        "meta_arg_of_pericenter": 266.708,
        "meta_mean_anomaly": 120.1173,
        "meta_ephemeris_type": 0,
        "meta_classification_type": "U",
        "meta_norad_cat_id": 29926,
        "meta_element_set_no": 999,
        "meta_rev_at_epoch": 98741,
        "meta_bstar": 0.00028762,
        "meta_mean_motion_dot": 1.066e-05,
        "meta_mean_motion_ddot": 0,
        "tle_line1": "1 29926U 99025HY  25357.92548280  .00001066  00000+0  28762-3 0  9993",
        "tle_line2": "2 29926  98.2841 346.3602 0247887 266.7080 120.1173 14.33421290987414"
      },
      "geometry": {
        "type": "Point",
        "coordinates": [
          -12.378570987591635,
          -5.470883485743975
        ]
      }
    },
    {
      "type": "Feature",
      "properties": {
        "norad_id": 29927,
        "name": "FENGYUN 1C DEB",
        "group": "fengyun-1c-debris",
        "lat": 54.89650226643664,
        "lon": 10.609530598483678,
        "alt_km": 646.1446548856047,
        "timestamp": "2025-12-24T09:46:31.276440+00:00",
        "meta_object_name": "FENGYUN 1C DEB",
        "meta_object_id": "1999-025HZ",
        "meta_epoch": "2025-12-23T21:04:00.301728",
        "meta_mean_motion": 14.749482,
        "meta_eccentricity": 0.0018043,
        "meta_inclination": 99.0832,
        "meta_ra_of_asc_node": 23.1718,
        "meta_arg_of_pericenter": 176.6695,
        "meta_mean_anomaly": 309.4691,
        "meta_ephemeris_type": 0,
        "meta_classification_type": "U",
        "meta_norad_cat_id": 29927,
        "meta_element_set_no": 999,
        "meta_rev_at_epoch": 98811,
        "meta_bstar": 0.0027462,
        "meta_mean_motion_dot": 0.00018484,
        "meta_mean_motion_ddot": 0,
        "tle_line1": "1 29927U 99025HZ  25357.87778127  .00018484  00000+0  27462-2 0  9990",
        "tle_line2": "2 29927  99.0832  23.1718 0018043 176.6695 309.4691 14.74948200988118"
      },
      "geometry": {
        "type": "Point",
        "coordinates": [
          10.609530598483678,
          54.89650226643664
        ]
      }
    },
    {
      "type": "Feature",
      "properties": {
        "norad_id": 29928,
        "name": "FENGYUN 1C DEB",
        "group": "fengyun-1c-debris",
        "lat": 46.15620875097802,
        "lon": -146.8845586328449,
        "alt_km": 878.9966853352844,
        "timestamp": "2025-12-24T09:46:31.276450+00:00",
        "meta_object_name": "FENGYUN 1C DEB",
        "meta_object_id": "1999-025JA",
        "meta_epoch": "2025-12-24T00:38:35.908800",
        "meta_mean_motion": 13.88103011,
        "meta_eccentricity": 0.0143039,
        "meta_inclination": 99.5835,
        "meta_ra_of_asc_node": 22.5935,
        "meta_arg_of_pericenter": 73.1252,
        "meta_mean_anomaly": 317.9481,
        "meta_ephemeris_type": 0,
        "meta_classification_type": "U",
        "meta_norad_cat_id": 29928,
        "meta_element_set_no": 999,
        "meta_rev_at_epoch": 95648,
        "meta_bstar": 0.00062341,
        "meta_mean_motion_dot": 7.61e-06,
        "meta_mean_motion_ddot": 0,
        "tle_line1": "1 29928U 99025JA  25358.02680450  .00000761  00000+0  62341-3 0  9995",
        "tle_line2": "2 29928  99.5835  22.5935 0143039  73.1252 317.9481 13.88103011956488"
      },
      "geometry": {
        "type": "Point",
        "coordinates": [
          -146.8845586328449,
          46.15620875097802
        ]
      }
    },
    {
      "type": "Feature",
      "properties": {
        "norad_id": 29929,
        "name": "FENGYUN 1C DEB",
        "group": "fengyun-1c-debris",
        "lat": -12.195285096887268,
        "lon": 95.13537597172429,
        "alt_km": 829.4209197198588,
        "timestamp": "2025-12-24T09:46:31.276460+00:00",
        "meta_object_name": "FENGYUN 1C DEB",
        "meta_object_id": "1999-025JB",
        "meta_epoch": "2025-12-24T00:36:31.079808",
        "meta_mean_motion": 14.01393445,
        "meta_eccentricity": 0.013177,
        "meta_inclination": 98.6246,
        "meta_ra_of_asc_node": 276.654,
        "meta_arg_of_pericenter": 144.5631,
        "meta_mean_anomaly": 280.6711,
        "meta_ephemeris_type": 0,
        "meta_classification_type": "U",
        "meta_norad_cat_id": 29929,
        "meta_element_set_no": 999,
        "meta_rev_at_epoch": 96114,
        "meta_bstar": 0.00096628,
        "meta_mean_motion_dot": 1.532e-05,
        "meta_mean_motion_ddot": 0,
        "tle_line1": "1 29929U 99025JB  25358.02535972  .00001532  00000+0  96628-3 0  9996",
        "tle_line2": "2 29929  98.6246 276.6540 0131770 144.5631 280.6711 14.01393445961141"
      },
      "geometry": {
        "type": "Point",
        "coordinates": [
          95.13537597172429,
          -12.195285096887268
        ]
      }
    }
  ]
}